start=new Date('2022-11-21T00:00:00.000Z').valueOf();
sats=[{"MEAN_ELEMENT_THEORY":"SGP4","OBJECT_TYPE":"PAYLOAD","CENTER_NAME":"EARTH","PERIOD":"95.592","MEAN_MOTION_DDOT":"0.0000000000000","EPOCH":"2022-11-20T15:42:57.643776","MEAN_MOTION_DOT":"-0.00000672","OBJECT_NAME":"STARLINK-2751","SEMIMAJOR_AXIS":"6925.345","FILE":"3665715","COUNTRY_CODE":"US","ECCENTRICITY":"0.00012710","REV_AT_EPOCH":"8278","TIME_SYSTEM":"UTC","RA_OF_ASC_NODE":"81.2846","EPHEMERIS_TYPE":"0","ARG_OF_PERICENTER":"92.6997","OBJECT_ID":"2021-044AZ","REF_FRAME":"TEME","APOAPSIS":"548.090","INCLINATION":"53.0537","BSTAR":"-0.00002624900000","TLE_LINE2":"2 48685  53.0537  81.2846 0001271  92.6997 267.4138 15.06401218 82782","ELEMENT_SET_NO":"999","NORAD_CAT_ID":"48685","LAUNCH_DATE":"2021-05-26","RCS_SIZE":"LARGE","MEAN_ANOMALY":"267.4138","DECAY_DATE":null,"SITE":"AFETR","MEAN_MOTION":"15.06401218","GP_ID":"218359201","TLE_LINE1":"1 48685U 21044AZ  22324.65483384 -.00000672  00000-0 -26249-4 0  9990","CLASSIFICATION_TYPE":"U","PERIAPSIS":"546.330"},{"MEAN_ELEMENT_THEORY":"SGP4","OBJECT_TYPE":"PAYLOAD","CENTER_NAME":"EARTH","PERIOD":"95.592","OBJECT_NAME":"STARLINK-2629","SEMIMAJOR_AXIS":"6925.361","MEAN_MOTION_DDOT":"0.0000000000000","EPOCH":"2022-11-20T18:45:28.682208","MEAN_MOTION_DOT":"0.00000979","FILE":"3665715","COUNTRY_CODE":"US","REV_AT_EPOCH":"8272","ECCENTRICITY":"0.00016130","TIME_SYSTEM":"UTC","RA_OF_ASC_NODE":"85.9496","ARG_OF_PERICENTER":"77.8815","EPHEMERIS_TYPE":"0","OBJECT_ID":"2021-044BA","REF_FRAME":"TEME","APOAPSIS":"548.343","INCLINATION":"53.0548","TLE_LINE2":"2 48686  53.0548  85.9496 0001613  77.8815 282.2354 15.06396055 82722","ELEMENT_SET_NO":"999","BSTAR":"0.00008463800000","NORAD_CAT_ID":"48686","LAUNCH_DATE":"2021-05-26","MEAN_ANOMALY":"282.2354","RCS_SIZE":"LARGE","DECAY_DATE":null,"MEAN_MOTION":"15.06396055","SITE":"AFETR","GP_ID":"218359951","TLE_LINE1":"1 48686U 21044BA  22324.78158197  .00000979  00000-0  84638-4 0  9990","CLASSIFICATION_TYPE":"U","PERIAPSIS":"546.109"},{"PERIAPSIS":"546.333","GP_ID":"218360203","CLASSIFICATION_TYPE":"U","TLE_LINE1":"1 48687U 21044BB  22324.75665675  .00000382  00000-0  44573-4 0  9994","DECAY_DATE":null,"SITE":"AFETR","MEAN_MOTION":"15.06391604","RCS_SIZE":"LARGE","MEAN_ANOMALY":"267.6975","NORAD_CAT_ID":"48687","LAUNCH_DATE":"2021-05-26","BSTAR":"0.00004457300000","ELEMENT_SET_NO":"999","TLE_LINE2":"2 48687  53.0554  75.7745 0001308  92.4163 267.6975 15.06391604 82860","INCLINATION":"53.0554","REF_FRAME":"TEME","APOAPSIS":"548.145","EPHEMERIS_TYPE":"0","ARG_OF_PERICENTER":"92.4163","OBJECT_ID":"2021-044BB","RA_OF_ASC_NODE":"75.7745","ECCENTRICITY":"0.00013080","REV_AT_EPOCH":"8286","TIME_SYSTEM":"UTC","FILE":"3665715","COUNTRY_CODE":"US","PERIOD":"95.593","EPOCH":"2022-11-20T18:09:35.143200","MEAN_MOTION_DDOT":"0.0000000000000","MEAN_MOTION_DOT":"0.00000382","OBJECT_NAME":"STARLINK-2627","SEMIMAJOR_AXIS":"6925.374","CENTER_NAME":"EARTH","OBJECT_TYPE":"PAYLOAD","MEAN_ELEMENT_THEORY":"SGP4"},{"FILE":"3665715","COUNTRY_CODE":"US","ECCENTRICITY":"0.00012830","REV_AT_EPOCH":"8286","TIME_SYSTEM":"UTC","RA_OF_ASC_NODE":"75.7623","EPHEMERIS_TYPE":"0","ARG_OF_PERICENTER":"94.3029","OBJECT_ID":"2021-044BC","MEAN_ELEMENT_THEORY":"SGP4","OBJECT_TYPE":"PAYLOAD","CENTER_NAME":"EARTH","PERIOD":"95.592","OBJECT_NAME":"STARLINK-2742","SEMIMAJOR_AXIS":"6925.365","EPOCH":"2022-11-20T18:14:53.204064","MEAN_MOTION_DDOT":"0.0000000000000","MEAN_MOTION_DOT":"0.00001454","MEAN_ANOMALY":"265.8107","RCS_SIZE":"LARGE","DECAY_DATE":null,"MEAN_MOTION":"15.06394742","SITE":"AFETR","GP_ID":"218360953","TLE_LINE1":"1 48688U 21044BC  22324.76033801  .00001454  00000-0  11648-3 0  9993","CLASSIFICATION_TYPE":"U","PERIAPSIS":"546.341","REF_FRAME":"TEME","APOAPSIS":"548.118","INCLINATION":"53.0549","TLE_LINE2":"2 48688  53.0549  75.7623 0001283  94.3029 265.8107 15.06394742 82867","ELEMENT_SET_NO":"999","BSTAR":"0.00011648000000","NORAD_CAT_ID":"48688","LAUNCH_DATE":"2021-05-26"},{"CENTER_NAME":"EARTH","PERIOD":"95.592","SEMIMAJOR_AXIS":"6925.360","OBJECT_NAME":"STARLINK-2617","MEAN_MOTION_DDOT":"0.0000000000000","MEAN_MOTION_DOT":"-0.00000076","EPOCH":"2022-11-20T18:22:10.242048","MEAN_ELEMENT_THEORY":"SGP4","OBJECT_TYPE":"PAYLOAD","RA_OF_ASC_NODE":"80.7197","EPHEMERIS_TYPE":"0","ARG_OF_PERICENTER":"89.2902","OBJECT_ID":"2021-044BD","FILE":"3665715","COUNTRY_CODE":"US","REV_AT_EPOCH":"8279","ECCENTRICITY":"0.00013240","TIME_SYSTEM":"UTC","ELEMENT_SET_NO":"999","TLE_LINE2":"2 48689  53.0565  80.7197 0001324  89.2902 270.8238 15.06396310 82793","BSTAR":"0.00001379800000","NORAD_CAT_ID":"48689","LAUNCH_DATE":"2021-05-26","REF_FRAME":"TEME","APOAPSIS":"548.142","INCLINATION":"53.0565","GP_ID":"218359701","TLE_LINE1":"1 48689U 21044BD  22324.76539632 -.00000076  00000-0  13798-4 0  9996","CLASSIFICATION_TYPE":"U","PERIAPSIS":"546.308","MEAN_ANOMALY":"270.8238","RCS_SIZE":"LARGE","DECAY_DATE":null,"MEAN_MOTION":"15.06396310","SITE":"AFETR"},{"CENTER_NAME":"EARTH","PERIOD":"95.592","MEAN_MOTION_DDOT":"0.0000000000000","MEAN_MOTION_DOT":"0.00000402","EPOCH":"2022-11-20T15:20:23.320320","SEMIMAJOR_AXIS":"6925.341","OBJECT_NAME":"STARLINK-2740","MEAN_ELEMENT_THEORY":"SGP4","OBJECT_TYPE":"PAYLOAD","RA_OF_ASC_NODE":"91.3121","ARG_OF_PERICENTER":"102.5832","EPHEMERIS_TYPE":"0","OBJECT_ID":"2021-044BE","FILE":"3665715","COUNTRY_CODE":"US","ECCENTRICITY":"0.00014310","REV_AT_EPOCH":"8263","TIME_SYSTEM":"UTC","BSTAR":"0.00004587700000","ELEMENT_SET_NO":"999","TLE_LINE2":"2 48690  53.0567  91.3121 0001431 102.5832 257.5317 15.06402532 82639","NORAD_CAT_ID":"48690","LAUNCH_DATE":"2021-05-26","REF_FRAME":"TEME","APOAPSIS":"548.197","INCLINATION":"53.0567","GP_ID":"218359452","TLE_LINE1":"1 48690U 21044BE  22324.63915880  .00000402  00000-0  45877-4 0  9992","CLASSIFICATION_TYPE":"U","PERIAPSIS":"546.215","RCS_SIZE":"LARGE","MEAN_ANOMALY":"257.5317","DECAY_DATE":null,"SITE":"AFETR","MEAN_MOTION":"15.06402532"},{"DECAY_DATE":null,"SITE":"AFETR","MEAN_MOTION":"15.06407716","RCS_SIZE":"LARGE","MEAN_ANOMALY":"274.3613","PERIAPSIS":"546.183","GP_ID":"218360703","TLE_LINE1":"1 48691U 21044BF  22324.74466712 -.00000534  00000-0 -16949-4 0  9996","CLASSIFICATION_TYPE":"U","INCLINATION":"53.0567","REF_FRAME":"TEME","APOAPSIS":"548.197","NORAD_CAT_ID":"48691","LAUNCH_DATE":"2021-05-26","BSTAR":"-0.00001694900000","ELEMENT_SET_NO":"999","TLE_LINE2":"2 48691  53.0567  85.8395 0001454  85.7542 274.3613 15.06407716 82721","ECCENTRICITY":"0.00014540","REV_AT_EPOCH":"8272","TIME_SYSTEM":"UTC","FILE":"3665715","COUNTRY_CODE":"US","ARG_OF_PERICENTER":"85.7542","EPHEMERIS_TYPE":"0","OBJECT_ID":"2021-044BF","RA_OF_ASC_NODE":"85.8395","OBJECT_TYPE":"PAYLOAD","MEAN_ELEMENT_THEORY":"SGP4","PERIOD":"95.592","MEAN_MOTION_DDOT":"0.0000000000000","EPOCH":"2022-11-20T17:52:19.239168","MEAN_MOTION_DOT":"-0.00000534","OBJECT_NAME":"STARLINK-2750","SEMIMAJOR_AXIS":"6925.325","CENTER_NAME":"EARTH"},{"NORAD_CAT_ID":"48692","LAUNCH_DATE":"2021-05-26","BSTAR":"0.00013811000000","TLE_LINE2":"2 48692  53.0565  85.4258 0001444 102.0324 258.0827 15.06390725 82743","ELEMENT_SET_NO":"999","INCLINATION":"53.0565","REF_FRAME":"TEME","APOAPSIS":"548.242","PERIAPSIS":"546.242","GP_ID":"218360454","TLE_LINE1":"1 48692U 21044BG  22324.86264609  .00001776  00000-0  13811-3 0  9992","CLASSIFICATION_TYPE":"U","DECAY_DATE":null,"SITE":"AFETR","MEAN_MOTION":"15.06390725","RCS_SIZE":"LARGE","MEAN_ANOMALY":"258.0827","PERIOD":"95.593","MEAN_MOTION_DDOT":"0.0000000000000","EPOCH":"2022-11-20T20:42:12.622176","MEAN_MOTION_DOT":"0.00001776","SEMIMAJOR_AXIS":"6925.377","OBJECT_NAME":"STARLINK-2752","CENTER_NAME":"EARTH","OBJECT_TYPE":"PAYLOAD","MEAN_ELEMENT_THEORY":"SGP4","ARG_OF_PERICENTER":"102.0324","EPHEMERIS_TYPE":"0","OBJECT_ID":"2021-044BG","RA_OF_ASC_NODE":"85.4258","ECCENTRICITY":"0.00014440","REV_AT_EPOCH":"8274","TIME_SYSTEM":"UTC","FILE":"3665715","COUNTRY_CODE":"US"},{"RA_OF_ASC_NODE":"90.8620","OBJECT_ID":"2021-044BH","ARG_OF_PERICENTER":"115.4576","EPHEMERIS_TYPE":"0","COUNTRY_CODE":"US","FILE":"3665715","TIME_SYSTEM":"UTC","REV_AT_EPOCH":"8265","ECCENTRICITY":"0.00011850","CENTER_NAME":"EARTH","SEMIMAJOR_AXIS":"6925.354","OBJECT_NAME":"STARLINK-2618","EPOCH":"2022-11-20T17:42:20.516544","MEAN_MOTION_DDOT":"0.0000000000000","MEAN_MOTION_DOT":"0.00003027","PERIOD":"95.592","MEAN_ELEMENT_THEORY":"SGP4","OBJECT_TYPE":"PAYLOAD","TLE_LINE1":"1 48693U 21044BH  22324.73773746  .00003027  00000-0  22205-3 0  9994","CLASSIFICATION_TYPE":"U","GP_ID":"218359202","PERIAPSIS":"546.399","MEAN_ANOMALY":"244.6535","RCS_SIZE":"LARGE","MEAN_MOTION":"15.06398103","SITE":"AFETR","DECAY_DATE":null,"TLE_LINE2":"2 48693  53.0556  90.8620 0001185 115.4576 244.6535 15.06398103 82651","ELEMENT_SET_NO":"999","BSTAR":"0.00022205000000","LAUNCH_DATE":"2021-05-26","NORAD_CAT_ID":"48693","APOAPSIS":"548.040","REF_FRAME":"TEME","INCLINATION":"53.0556"},{"SITE":"AFETR","MEAN_MOTION":"15.06401645","DECAY_DATE":null,"RCS_SIZE":"LARGE","MEAN_ANOMALY":"261.2312","PERIAPSIS":"546.330","TLE_LINE1":"1 48694U 21044BJ  22324.70595522  .00002562  00000-0  19083-3 0  9999","CLASSIFICATION_TYPE":"U","GP_ID":"218359952","INCLINATION":"53.0549","APOAPSIS":"548.087","REF_FRAME":"TEME","LAUNCH_DATE":"2021-05-26","NORAD_CAT_ID":"48694","BSTAR":"0.00019083000000","TLE_LINE2":"2 48694  53.0549  96.0034 0001269  98.8821 261.2312 15.06401645 82576","ELEMENT_SET_NO":"999","TIME_SYSTEM":"UTC","ECCENTRICITY":"0.00012690","REV_AT_EPOCH":"8257","COUNTRY_CODE":"US","FILE":"3665715","OBJECT_ID":"2021-044BJ","EPHEMERIS_TYPE":"0","ARG_OF_PERICENTER":"98.8821","RA_OF_ASC_NODE":"96.0034","OBJECT_TYPE":"PAYLOAD","MEAN_ELEMENT_THEORY":"SGP4","MEAN_MOTION_DDOT":"0.0000000000000","EPOCH":"2022-11-20T16:56:34.531008","MEAN_MOTION_DOT":"0.00002562","SEMIMAJOR_AXIS":"6925.344","OBJECT_NAME":"STARLINK-2748","PERIOD":"95.592","CENTER_NAME":"EARTH"}];
